{"fetched_at":"2026-03-29T16:36:15Z","count":15609,"tles":[{"name":"STARLINK-30446","line1":"1 57872U 23144J   26087.52387118  .00001862  00000+0  77185-4 0  9999","line2":"2 57872  43.0037 164.7050 0002057 255.7620 104.3003 15.27579970140415","category":"Starlink"}]}